{
    "links": {
        "self": "http://www.neowsapp.com/rest/v1/neo/3648091?api_key=iIulBulltgU6a56xZRHN4H3l9WmuAYTsLGpBGhQ2"
    },
    "id": "3648091",
    "neo_reference_id": "3648091",
    "name": "(2013 RT73)",
    "designation": "2013 RT73",
    "nasa_jpl_url": "http://ssd.jpl.nasa.gov/sbdb.cgi?sstr=3648091",
    "absolute_magnitude_h": 24.7,
    "estimated_diameter": {
        "kilometers": {
            "estimated_diameter_min": 0.0305179233,
            "estimated_diameter_max": 0.0682401509
        },
        "meters": {
            "estimated_diameter_min": 30.5179232594,
            "estimated_diameter_max": 68.2401509401
        },
        "miles": {
            "estimated_diameter_min": 0.0189629525,
            "estimated_diameter_max": 0.0424024508
        },
        "feet": {
            "estimated_diameter_min": 100.1244233463,
            "estimated_diameter_max": 223.8850168104
        }
    },
    "is_potentially_hazardous_asteroid": false,
    "close_approach_data": [
        {
            "close_approach_date": "2013-09-16",
            "close_approach_date_full": "2013-Sep-16 09:58",
            "epoch_date_close_approach": 1379325480000,
            "relative_velocity": {
                "kilometers_per_second": "8.1726660616",
                "kilometers_per_hour": "29421.5978217811",
                "miles_per_hour": "18281.4367132061"
            },
            "miss_distance": {
                "astronomical": "0.0212372155",
                "lunar": "8.2612768295",
                "kilometers": "3177042.203530985",
                "miles": "1974122.483998193"
            },
            "orbiting_body": "Earth"
        },
        {
            "close_approach_date": "2099-08-13",
            "close_approach_date_full": "2099-Aug-13 22:44",
            "epoch_date_close_approach": 4090344240000,
            "relative_velocity": {
                "kilometers_per_second": "16.138671242",
                "kilometers_per_hour": "58099.216471178",
                "miles_per_hour": "36100.5937012162"
            },
            "miss_distance": {
                "astronomical": "0.2640745418",
                "lunar": "102.7249967602",
                "kilometers": "39504988.974505966",
                "miles": "24547261.8770996908"
            },
            "orbiting_body": "Earth"
        }
    ],
    "orbital_data": {
        "orbit_id": "6",
        "orbit_determination_date": "2017-04-06 08:44:42",
        "first_observation_date": "2013-09-13",
        "last_observation_date": "2013-09-22",
        "data_arc_in_days": 9,
        "observations_used": 104,
        "orbit_uncertainty": "7",
        "minimum_orbit_intersection": ".015815",
        "jupiter_tisserand_invariant": "3.325",
        "epoch_osculation": "2459000.5",
        "eccentricity": ".5690768130365573",
        "semi_major_axis": "2.337106164909966",
        "inclination": "4.551046388608198",
        "ascending_node_longitude": "349.4901043797259",
        "orbital_period": "1305.016757432407",
        "perihelion_distance": "1.007113236854912",
        "perihelion_argument": "19.80955410543115",
        "aphelion_distance": "3.66709909296502",
        "perihelion_time": "2459173.507482665496",
        "mean_anomaly": "312.2744107270174",
        "mean_motion": ".2758585266815213",
        "equinox": "J2000",
        "orbit_class": {
            "orbit_class_type": "APO",
            "orbit_class_description": "Near-Earth asteroid orbits which cross the Earth’s orbit similar to that of 1862 Apollo",
            "orbit_class_range": "a (semi-major axis) > 1.0 AU; q (perihelion) < 1.017 AU"
        }
    },
    "is_sentry_object": false
}